#aV2011  2  7  0  0   .00000000      96 DD+AD WGS84 FIT  NGA
## 1622  86400.00000000   900.00000000 55599  .0000000000000
+   32     1  2  3  4  5  6  7  8  9 10 11 12 13 14 15 16 17
+         18 19 20 21 22 23 24 25 26 27 28 29 30 31 32  0  0
+          0  0  0  0  0  0  0  0  0  0  0  0  0  0  0  0  0
+          0  0  0  0  0  0  0  0  0  0  0  0  0  0  0  0  0
+          0  0  0  0  0  0  0  0  0  0  0  0  0  0  0  0  0
++         0  0  0  0  0  0  0  0  0  0  0  0  0  0  0  0  0
++         0  0  0  0  0  0  0  0  0  0  0  0  0  0  0  0  0
++         0  0  0  0  0  0  0  0  0  0  0  0  0  0  0  0  0
++         0  0  0  0  0  0  0  0  0  0  0  0  0  0  0  0  0
++         0  0  0  0  0  0  0  0  0  0  0  0  0  0  0  0  0
%c cc cc ccc ccc cccc cccc cccc cccc ccccc ccccc ccccc ccccc
%c cc cc ccc ccc cccc cccc cccc cccc ccccc ccccc ccccc ccccc
%f  0.0000000  0.000000000  0.00000000000  0.000000000000000
%f  0.0000000  0.000000000  0.00000000000  0.000000000000000
%i    0    0    0    0      0      0      0      0         0
%i    0    0    0    0      0      0      0      0         0
/*      NGA, ST. LOUIS,MO.                                  
/*   EPHEMERIS COMPUTED FROM  3 DAYS OF DATA                
/* CCCCCCCCCCCCCCCCCCCCCCCCCCCCCCCCCCCCCCCCCCCCCCCCCCCCCCCCC
/* CCCCCCCCCCCCCCCCCCCCCCCCCCCCCCCCCCCCCCCCCCCCCCCCCCCCCCCCC
*  2011  2  7  1 45   .00000000                                                 
P  1   6650.185763 -23886.998863   9216.233037   -206.349231                    
V  1   2347.108024  11925.174465  28997.492124      -.030394                    
P  2   4705.212092  18473.004622  18698.809819    318.969238                    
V  2 -21211.872147 -10486.845919  15232.584454       .020816                    
P  3    775.153235 -18516.254238 -19322.002979    672.681290                    
V  3  20282.870198 -12767.960615  13655.704918       .049522                    
P  4  -8381.991876  13167.207206  21285.463399     28.880850                    
V  4 -23747.980303 -14064.147595   -295.959360       .101203                    
P  5   2135.450409  26192.540253  -3456.827518   -110.786063                    
V  5  -3107.993276   4345.590090  31287.792887      -.059232                    
P  6   6439.244693 -18991.402793 -17155.521559    -62.519195                    
V  6  20052.524290  -9918.141980  18532.595527      -.237261                    
P  7 -22767.574083  -3054.247933 -13500.041229      3.152013                    
V  7 -13670.732971 -10339.646055  25187.880907       .007249                    
P  8 -16357.802971   4711.446280 -20520.950955      7.339653                    
V  8 -20843.190182 -15309.956060  12559.996633       .000157                    
P  9  20979.802480  15682.695229  -4969.107722     60.231565                    
V  9  -5859.962700  -1025.333605 -31411.007497       .024032                    
P 10  -8379.206319  22575.312430  10567.275267    -65.499548                    
V 10  -2589.960312 -13981.681855  27642.952202      -.011243                    
P 11 -23227.196218 -11980.503511  -5972.746320   -125.204923                    
V 11   8214.930031  -2260.454455 -28583.260976      -.029515                    
P 12  10978.224984  17450.055662  16873.654406    -29.123488                    
V 12  -2045.012605  21214.976373 -20487.093274       .033088                    
P 13 -24315.459618   4170.256504   9762.160924    283.322508                    
V 13  10698.285823  -6761.044231  29077.807806      -.012743                    
P 14  20651.905483 -15181.632889   6847.596783    129.525525                    
V 14   8533.747974  -1893.527409 -30764.842753       .027759                    
P 15  13815.486593   9105.900692 -20791.317609   -153.856248                    
V 15 -22444.189612  13988.292472  -8624.385769       .035741                    
P 16   1030.450116 -26378.747843   -283.654539   -148.690561                    
V 16   2641.715511   -280.552093  32252.287152      -.029562                    
P 17 -21071.888563  15132.442008   5225.394577    182.791759                    
V 17  -7120.884094    454.856432 -30981.559901       .005194                    
P 18  15259.200005  -6653.121480 -20326.992673    120.130723                    
V 18    370.233807  26693.763824  -8706.273160       .020630                    
P 19  -9297.860346 -12410.470507 -21586.462420   -108.753560                    
V 19  24845.441233 -11540.250382  -3737.183654      -.036232                    
P 20 -14110.480674 -12312.890476  18711.905084     48.683327                    
V 20   1221.494520 -24170.880608 -14798.824507      -.000186                    
P 21  22977.931751   2501.118184 -13228.424474   -122.149349                    
V 21  13379.921562  11201.023431  24032.964638      -.027081                    
P 22  11658.001430 -18570.516928 -14758.173141    153.699360                    
V 22   2097.103750  19236.539823 -22395.196455      -.005324                    
P 23 -18730.042753  -4334.346781  18465.656494    327.556925                    
V 23  19881.594076 -12249.052702  16960.712027      -.023535                    
P 24 -21760.871231 -15448.697699   -996.583086    363.203140                    
V 24   2762.568406  -1736.573746 -31270.165313       .032903                    
P 25  15151.428701   1458.500890  21753.580329    -67.182914                    
V 25   -150.812079  27646.460155  -1740.986207      -.015835                    
P 26    -36.722322  15854.656013 -21810.850058   -114.942439                    
V 26 -24131.222165  10594.515608   8366.106868      -.095218                    
P 27  18368.784142  16713.979540  -9125.692478    234.307754                    
V 27 -11897.673157  -4133.489747 -29094.574048       .037005                    
P 28 -12517.287903  15227.040573 -17157.406980     18.625701                    
V 28   -560.600726 -22936.541098 -19637.985270       .020429                    
P 29  23420.512682  -2316.625587  12352.231680    183.468482                    
V 29 -12808.517273   9152.902257  26207.763095       .026732                    
P 30   3567.418638 -25476.219229   6128.520574    319.831931                    
V 30   3097.664854   8233.574649  30441.826463       .031615                    
P 31   5676.257606 -13926.642333  22091.377171     38.581873                    
V 31  23659.843232  14020.103486   2984.708859       .045323                    
P 32  -8459.075078 -20739.130244  14872.824094   -191.103779                    
V 32   3660.010214 -17950.087032 -23019.403618      -.079047                    
EOF
